satname,norad_id,inclination_deg,eccentricity,mean_motion_rev_per_day,perigee_km,apogee_km,l1,l2
STARLINK-1008,44714,53.1557,0.0001152,15.3102827,471.95389809142125,473.53234087094916,1 44714U 19074B   26038.93922157  .00003805  00000+0  13706-3 0  9993,2 44714  53.1557 317.1290 0001152 114.7321 245.3800 15.31028270344315
STARLINK-1012,44718,53.16,0.0001266,15.30191631,474.3724203231668,476.1076953942156,1 44718U 19074F   26038.96863642 -.00001012  00000+0 -22042-4 0  9997,2 44718  53.1600 316.8608 0001266  86.8670 273.2476 15.30191631344319
STARLINK-1017,44723,53.0463,0.0003123,15.21722781,498.4957056939602,502.7921922746973,1 44723U 19074L   26038.94226993  .00028801  00000+0  12649-2 0  9996,2 44723  53.0463 308.4191 0003123 105.6378 254.4963 15.21722781344435
STARLINK-1019,44724,53.0495,0.0010786,15.72318934,345.01188670057945,359.5307234963375,1 44724U 19074M   26038.91667824  .00142870  00000+0  10402-2 0  9994,2 44724  53.0495 285.4668 0010786  96.0608  48.9351 15.72318934  6008
STARLINK-1020,44725,53.0555,0.0001415,15.0640007,546.231406607777,548.1912801889584,1 44725U 19074N   26038.16509860 -.00000023  00000+0  17332-4 0  9992,2 44725  53.0555 343.6476 0001415  89.9880 270.1271 15.06400070343860
STARLINK-1031,44736,53.0435,0.0006242,15.7807846,331.6944170152892,340.07620246677016,1 44736U 19074Z   26038.91667824  .00155613  00000+0  88194-3 0  9990,2 44736  53.0435 270.4268 0006242 127.8103 172.0669 15.78078460  5968
STARLINK-1036,44741,53.0572,0.0006124,15.49638419,413.6211816129744,421.9448244326768,1 44741U 19074AE  26038.10101088  .00120485  00000+0  21151-2 0  9990,2 44741  53.0572 335.8993 0006124 106.1929 253.9753 15.49638419343975
STARLINK-1039,44744,53.0513,0.0006679,15.19149794,503.8093040575486,513.008351974614,1 44744U 19074AH  26038.24262259  .00065267  00000+0  30535-2 0  9998,2 44744  53.0513 354.7524 0006679  88.6055 271.5705 15.19149794343728
STARLINK-1042,44747,53.0428,0.000348,15.48239606,419.509328738598,424.24213760088514,1 44747U 19074AL  26038.84484445  .00027549  00000+0  52059-3 0  9997,2 44747  53.0428 237.8098 0003480 103.8882 256.2512 15.48239606345449
STARLINK-1043,44748,53.0547,0.0002739,15.5161636,410.1465029771025,413.8661434895712,1 44748U 19074AM  26038.21043486  .00037531  00000+0  62630-3 0  9993,2 44748  53.0547 341.3181 0002739  56.0166 304.1103 15.51616360343915
STARLINK-1046,44751,53.0569,0.0007366,15.41608897,436.3371760223581,446.38365961829004,1 44751U 19074AQ  26038.28551623  .00092718  00000+0  21518-2 0  9998,2 44751  53.0569 355.0725 0007366  79.8844 280.2991 15.41608897343729
STARLINK-1047,44752,53.0703,0.0004898,15.31878936,466.8523295236164,473.56096696143413,1 44752U 19074AR  26038.94777660  .00011730  00000+0  38694-3 0  9992,2 44752  53.0703 284.8689 0004898 117.7222 242.4276 15.31878936344782
STARLINK-1048,44753,53.0557,0.0005769,15.49873855,413.174586527668,421.01492492742545,1 44753U 19074AS  26038.91667824  .00029646  00000+0  52820-3 0  9992,2 44753  53.0557 311.9224 0005769  96.5755 103.1848 15.49873855  5797
STARLINK-1053,44758,53.0315,0.0001333,15.79749755,330.25473016185515,332.04342583024845,1 44758U 19074AX  26038.91667824  .00143534  00000+0  75648-3 0  9993,2 44758  53.0315 234.0186 0001333 197.5255 160.7030 15.79749755  6029
STARLINK-1060,44765,53.0335,0.0005542,16.12291926,236.89530101119544,244.23146851766796,1 44765U 19074BE  26038.76809944  .00892036  48217-3  79467-3 0  9992,2 44765  53.0335 272.3443 0005542 261.4631  98.5776 16.12291926344913
STARLINK-1063,44768,53.1592,0.0001533,15.30203612,474.15366744066614,476.25490187854393,1 44768U 19074BH  26038.91667824  .00043913  00000+0  14859-2 0  9990,2 44768  53.1592 357.6889 0001533 100.1121 333.0740 15.30203612  5738
STARLINK-1067,44771,53.0548,0.0007624,15.49316711,413.54180343857024,423.90565667976443,1 44771U 19074BL  26038.66668981  .01062097  00000+0  17296-1 0  9993,2 44771  53.0548 349.1357 0007624 102.1427 274.2654 15.49316711  5854
STARLINK-1068,44772,53.0536,0.0005618,15.5691611,392.78240653774265,400.39448805032225,1 44772U 19074BM  26038.91667824  .00071175  00000+0  96895-3 0  9997,2 44772  53.0536 324.9244 0005618 107.0397   0.8567 15.56916110  5942
STARLINK-1112,44925,53.04,0.0002724,15.86878096,309.21955917283594,312.86382372393655,1 44925U 20001M   26038.91667824  .00377091  00000+0  13781-2 0  9997,2 44925  53.0400  34.2706 0002724  50.2351  50.8739 15.86878096  6030
STARLINK-1114,44927,53.0513,0.0006523,15.45270583,426.1418054242022,435.0244617104545,1 44927U 20001P   26038.71393539  .00099927  00000+0  20477-2 0  9995,2 44927  53.0513 112.6776 0006523   9.4450 350.6677 15.45270583335457
STARLINK-1123,44930,53.0533,0.0001473,15.06393934,546.2100428358917,548.2502559981103,1 44930U 20001S   26038.53552537  .00006931  00000+0  48380-3 0  9991,2 44930  53.0533 121.9884 0001473 102.3624 257.7530 15.06393934335303
STARLINK-1144,44933,53.0308,0.0004969,16.10308977,242.70429019275525,249.2873533910515,1 44933U 20001V   26038.46157420  .00794138  35993-3  80722-3 0  9990,2 44933  53.0308   5.4563 0004969  88.7944 271.3659 16.10308977338228
STARLINK-1094,44941,53.1603,0.0001299,15.30196168,474.3362591843861,476.1167630245709,1 44941U 20001AD  26038.44273112  .00000297  00000+0  22142-4 0  9990,2 44941  53.1603 100.0575 0001299  82.4393 277.6756 15.30196168335607
STARLINK-1122,44949,53.155,0.0001214,15.29362858,476.8834641117064,478.5480651629605,1 44949U 20001AM  26038.40148489  .00003415  00000+0  13060-3 0  9995,2 44949  53.1550 100.2714 0001214  96.3763 263.7375 15.29362858335595
STARLINK-1080,44961,53.053,0.0008161,15.43186921,431.14906399434585,442.2722583469076,1 44961U 20001AZ  26038.40138416  .00046892  00000+0  10428-2 0  9998,2 44961  53.0530  72.3723 0008161  10.7682 349.3496 15.43186921335993
STARLINK-1090,44968,53.0544,0.0001311,15.06406695,546.2831282976422,548.0989493094157,1 44968U 20001BG  26038.43969935  .00003503  00000+0  25391-3 0  9994,2 44968  53.0544  82.4171 0001311 101.8732 258.2404 15.06406695335856
STARLINK-1132,45044,53.1598,0.0003975,15.39297899,445.4708038648514,450.89772927177364,1 45044U 20006A   26038.38174477  .00121812  00000+0  30383-2 0  9998,2 45044  53.1598  37.2011 0003975  93.9604 266.1856 15.39297899332250
STARLINK-1131,45047,53.156,0.00015,15.29381349,476.63213439757783,478.6888736487854,1 45047U 20006D   26038.48586506  .00006862  00000+0  24973-3 0  9998,2 45047  53.1560  61.2275 0001500  84.2940 275.8232 15.29381349331920
STARLINK-1134,45048,53.0355,0.0007659,15.39825876,441.39668264298325,451.8508511857426,1 45048U 20006E   26038.35840665  .00122855  00000+0  30091-2 0  9992,2 45048  53.0355  22.1637 0007659  75.2430 284.9422 15.39825876332466
STARLINK-1156,45054,53.1548,0.0001537,15.29315322,476.8040653489279,478.9115981602099,1 45054U 20006L   26038.91667824  .00061137  00000+0  21162-2 0  9999,2 45054  53.1548  59.2097 0001537  85.1556   0.4653 15.29315322  5572
STARLINK-1159,45057,53.0481,0.000509,15.71947478,349.9052232450931,356.75785821955924,1 45057U 20006P   26038.91667824  .00245114  00000+0  17922-2 0  9990,2 45057  53.0481  23.5940 0005090  33.8134 336.8360 15.71947478  5943
STARLINK-1166,45060,53.0543,0.0004567,15.41605182,438.25690420905084,444.48584315757216,1 45060U 20006S   26038.92044712  .00100418  00000+0  23289-2 0  9990,2 45060  53.0543  54.1233 0004567  41.1608 318.9740 15.41605182332066
STARLINK-1169,45061,53.1443,0.0001055,15.27037669,483.9494842483591,485.3975372661298,1 45061U 20006T   26038.91667824  .01109438  00000+0  38152-1 0  9991,2 45061  53.1443  59.2333 0001055 105.4173 148.7295 15.27037669  5787
STARLINK-1171,45062,53.0486,0.0003493,15.51639937,409.56576636324917,414.309312436475,1 45062U 20006U   26038.91667824  .00161092  00000+0  26192-2 0  9997,2 45062  53.0486  33.3733 0003493 299.9917 234.3522 15.51639937  5748
STARLINK-1133,45064,53.1582,0.0001248,15.30193424,474.3794034516195,476.09000502899835,1 45064U 20006W   26038.29407302  .00000576  00000+0  31566-4 0  9995,2 45064  53.1582  38.9850 0001248  92.7013 267.4131 15.30193424332223
STARLINK-1167,45071,53.1628,0.0002054,15.29353098,476.3367348348802,479.1531311329509,1 45071U 20006AD  26038.37072032  .00000422  00000+0  26992-4 0  9997,2 45071  53.1628  38.4952 0002054  85.6479 274.4757 15.29353098332239
STARLINK-1168,45072,53.1629,0.0001326,15.29365078,476.8000448803705,478.61821527406664,1 45072U 20006AE  26038.31515654 -.00000003  00000+0  12244-4 0  9995,2 45072  53.1629  38.8214 0001326  95.9156 264.1995 15.29365078332223
STARLINK-1172,45074,53.1596,0.0001508,15.30269699,473.97351455713306,476.04042277808185,1 45074U 20006AG  26038.40150139  .00031144  00000+0  10570-2 0  9997,2 45074  53.1596  38.5089 0001508  63.5625 296.5531 15.30269699332239
STARLINK-1153,45080,53.1596,0.000147,15.29360041,476.7163717853309,478.7319949732437,1 45080U 20006AN  26038.42048156  .00004849  00000+0  18025-3 0  9997,2 45080  53.1596  38.1865 0001470 104.2158 255.9006 15.29360041332244
STARLINK-1151,45081,53.0533,0.0011596,15.53431965,398.84683341888467,414.58226112732063,1 45081U 20006AP  26038.91667824  .00161396  00000+0  24546-2 0  9996,2 45081  53.0533  24.4203 0011596  44.1251 189.1602 15.53431965  5894
STARLINK-1185,45087,53.0951,9.65e-05,15.16288385,516.4045158137487,517.7352907460818,1 45087U 20006AV  26038.91667824  .00105378  00000+0  53148-2 0  9990,2 45087  53.0951  19.9848 0000965 102.4372 215.8548 15.16288385  5833
STARLINK-1183,45088,53.085,0.000216,15.14145119,522.0843568137298,525.0658964524355,1 45088U 20006AW  26038.91667824  .00103406  00000+0  55429-2 0  9995,2 45088  53.0850  20.1358 0002160  75.0623  40.4383 15.14145119  5705
STARLINK-1152,45096,53.043,0.00071,15.34618277,457.19801586051017,466.91108786415407,1 45096U 20006BE  26038.02514081  .00031119  00000+0  92128-3 0  9991,2 45096  53.0430 350.6741 0007100  84.6204 275.5607 15.34618277332878
